[{"OBJECT_NAME":"STARLINK-33675","OBJECT_ID":"2025-065AA","EPOCH":"2026-03-09T19:39:43.619040","MEAN_MOTION":15.27549495,"ECCENTRICITY":0.00017055,"INCLINATION":43.0036,"RA_OF_ASC_NODE":105.9498,"ARG_OF_PERICENTER":275.2064,"MEAN_ANOMALY":84.8593,"EPHEMERIS_TYPE":0,"CLASSIFICATION_TYPE":"U","NORAD_CAT_ID":63423,"ELEMENT_SET_NO":999,"REV_AT_EPOCH":5286,"BSTAR":0.00073133696,"MEAN_MOTION_DOT":0.00019898,"MEAN_MOTION_DDOT":0},{"OBJECT_NAME":"CZ-6A DEB","OBJECT_ID":"2022-151DE","EPOCH":"2026-03-09T09:45:43.657920","MEAN_MOTION":15.34292219,"ECCENTRICITY":0.00393756,"INCLINATION":99.0022,"RA_OF_ASC_NODE":218.5596,"ARG_OF_PERICENTER":192.6197,"MEAN_ANOMALY":167.4059,"EPHEMERIS_TYPE":0,"CLASSIFICATION_TYPE":"U","NORAD_CAT_ID":54359,"ELEMENT_SET_NO":999,"REV_AT_EPOCH":10560,"BSTAR":0.0065240017,"MEAN_MOTION_DOT":0.00228186,"MEAN_MOTION_DDOT":0}]
